LEMUR-1                 
1 40044U 14033AL  26168.36131115  .00001695  00000+0  19953-3 0  9997
2 40044  97.7876 318.1624 0049676  78.0722 282.6056 14.85247306645498
LEMUR-2-GREENBERG       
1 42837U 17042N   26168.47908919  .00012423  00000+0  41240-3 0  9993
2 42837  97.3816 349.1017 0008508  13.0067 347.1392 15.31334775488438
LEMUR-2-ANDIS           
1 42838U 17042P   26168.05134781  .00018164  00000+0  53887-3 0  9994
2 42838  97.3672 348.8597 0008174  12.8795 347.2655 15.34838886488430
LEMUR-2-MONSON          
1 42839U 17042Q   26168.48849161  .00010574  00000+0  38928-3 0  9993
2 42839  97.4076 349.0830 0006183   5.1720 354.9582 15.28016395488210
LEMUR-2-FURIAUS         
1 42840U 17042R   26168.47308843  .00013294  00000+0  45598-3 0  9994
2 42840  97.3768 347.0502 0008175  68.3707 291.8403 15.30258907488257
LEMUR-2-PETERG          
1 42841U 17042S   26168.49206058  .00015393  00000+0  47149-3 0  9998
2 42841  97.3987 353.5221 0003206 355.8893   4.2323 15.33891942488488
LEMUR-2-DEMBITZ         
1 42842U 17042T   26168.49296179  .00012577  00000+0  43118-3 0  9995
2 42842  97.3822 350.0943 0006728  27.8027 332.3572 15.30300449488392
LEMUR-2-ZACHARY         
1 42845U 17042W   26168.51275702  .00037119  00000+0  65522-3 0  9992
2 42845  97.3591   0.1557 0002877  31.4744 328.6679 15.50284724489251
LEMUR-2-AMANDA-SVANTE   
1 48269U 21034B   26168.16182764  .00024876  00000+0  75004-3 0  9992
2 48269  97.5763 246.4469 0002280 208.6584 151.4534 15.34295333281055
LEMUR-2-SPECIAL-K       
1 48273U 21034F   26168.14937973  .00126504  00000+0  13010-2 0  9994
2 48273  97.5654 255.0033 0004317 228.4690 131.6199 15.64459645281680
LEMUR-2-EMBRIONOVIS     
1 56970U 23084AQ  26168.33188497  .00010473  00000+0  28630-3 0  9996
2 56970  97.6296 312.5361 0007732 319.5567  40.5101 15.37551092167704
LEMUR-2-DEVERILL-M-T    
1 57391U 23100F   26168.03986424  .00023898  00000+0  60519-3 0  9993
2 57391  99.4463 206.7553 0006340  50.5379 309.6420 15.39749302161221
LEMUR-2-BASS            
1 58259U 23174D   26168.14541446  .00013747  00000+0  31247-3 0  9999
2 58259  97.3850 252.8569 0007725 162.2720 197.8799 15.43093407145355
LEMUR-2-JK0903EM1407    
1 58336U 23174CJ  26167.75681777  .00022153  00000+0  37361-3 0  9997
2 58336  97.3927 258.2139 0005785 121.1436 239.0385 15.51662320145660
LEMUR-2-MJR092620       
1 58340U 23174CN  26168.48262561  .00015465  00000+0  33072-3 0  9992
2 58340  97.3979 258.5168 0007144 116.8150 243.3830 15.44883841145693
LEMUR-2-NIMBUS2000      
1 58899U 24022A   26168.53364534  .00013626  00000+0  34279-3 0  9990
2 58899  97.4103  18.5391 0010351 114.7949 245.4375 15.40005076132326
LEMUR-2-VALHALLA        
1 58900U 24022B   26168.52993710  .00012802  00000+0  32560-3 0  9992
2 58900  97.4101  18.5257 0010869 110.9404 249.3006 15.39680570132326
LEMUR-2-CAEL            
1 58903U 24022E   26168.53947322  .00013768  00000+0  33549-3 0  9994
2 58903  97.4083  19.4718 0009263  96.4011 263.8290 15.40983708132392
LEMUR-2-JOHNNYTRUONG    
1 59146U 24043BA  26168.40654851  .00033183  00000+0  40360-3 0  9997
2 59146  97.5382 320.1225 0004826 175.9069 184.2228 15.60479348128075
LEMUR-2-TOMATOKECHUP    
1 60471U 24149D   26167.97704351  .00009737  00000+0  27977-3 0  9996
2 60471  97.3803 250.0230 0001440 175.8194 184.3062 15.36030247102138
LEMUR-2-STELLA          
1 60533U 24149BT  26168.14795990  .00008720  00000+0  51415-3 0  9999
2 60533  97.6740 250.6025 0001708  95.8157 264.3268 15.11810973100494
LEMUR-2-MARHISYAM       
1 60536U 24149BW  26168.59174188  .00008890  00000+0  53196-3 0  9997
2 60536  97.6878 251.4975 0003279 117.6410 242.5153 15.11267356100540
LEMUR-2-AHMED-ASRAR     
1 60576U 24149DN  26168.16245972  .00008917  00000+0  51271-3 0  9996
2 60576  97.7011 253.1588 0001880  44.7599 315.3783 15.12714446100565
LEMUR-2-LLOYD           
1 60577U 24149DP  26168.04228245  .00009606  00000+0  60720-3 0  9993
2 60577  97.6748 249.1706 0004787 141.0187 219.1387 15.09237949100376
LEMUR-2-SQUIRRELCOMM    
1 60578U 24149DQ  26168.45460650  .00004605  00000+0  31040-3 0  9994
2 60578  97.6706 249.3648 0006290  60.5961 299.5894 15.07150992100447
LEMUR-2-SIERRINI        
1 60579U 24149DR  26168.15177786  .00008352  00000+0  50436-3 0  9990
2 60579  97.6845 250.7436 0005874 164.0442 196.0973 15.10947089100459
LEMUR-2-WILSON          
1 62694U 25009CP  26168.16192792  .00002233  00000+0  20851-3 0  9991
2 62694  97.7025 246.6268 0004256  58.7754 301.3884 14.95165085 77359
LEMUR-2-STAR-FOX        
1 62696U 25009CR  26168.15937849  .00006023  00000+0  45790-3 0  9992
2 62696  97.6956 249.7680 0003852 111.6733 248.4902 15.02504429 77554
LEMUR-2-ARIANNA         
1 62699U 25009CU  26168.15771753  .00005975  00000+0  45456-3 0  9999
2 62699  97.6895 249.5413 0004230 117.1929 242.9727 15.02485733 77550
